QIANFAN-33              
1 61566U 24185Q   25228.38979680  .00000219  00000+0  14884-3 0  9992
2 61566  88.9765  92.0227 0006621 353.8307   6.2787 13.96412466 52644
QIANFAN-34              
1 61567U 24185R   25227.91262296  .00000330  00000+0  20677-3 0  9990
2 61567  88.9745  91.7962 0006274   9.1188 351.0104 14.02165575 52702
QIANFAN-35              
1 61568U 24185S   25227.90824137  .00000468  00000+0  18400-3 0  9991
2 61568  88.9768  90.8472 0005677 336.2574  23.8358 14.27672232 53226
QIANFAN-36              
1 61569U 24185T   25227.90095914  .00000113  00000+0  14570-3 0  9996
2 61569  88.9756  93.4426 0007468  39.7606 320.4094 13.55546762 51828
QIANFAN-37              
1 62238U 24232B   25227.89622843  .00000043  00000+0  48138-4 0  9998
2 62238  88.9926  53.3404 0002643  87.9945 272.1509 13.50966220 83125
QIANFAN-38              
1 62239U 24232C   25227.92110427  .00000047  00000+0  53507-4 0  9993
2 62239  88.9933  53.2456 0014740 171.1216 189.0199 13.50963814 83181
QIANFAN-39              
1 62240U 24232D   25227.91648151  .00000139  00000+0  52884-4 0  9993
2 62240  88.9933  50.9089 0018408 105.7594 254.5631 14.25232982 84465
QIANFAN-40              
1 62241U 24232E   25227.87990046  .00000044  00000+0  49653-4 0  9997
2 62241  88.9961  52.8008 0013509 178.5560 181.5633 13.50960458 83549
